STARLINK-5107           
1 54826U 22177G   24333.54137468  .00001920  00000+0  15724-3 0  9990
2 54826  43.0025 146.3253 0001295 269.2199  90.8495 15.02519613106836
STARLINK-5383           
1 54827U 22177H   24333.53361888  .00001662  00000+0  13808-3 0  9999
2 54827  43.0012 146.2657 0001195 267.5656  92.5050 15.02535950106847
STARLINK-5381           
1 54828U 22177J   24333.46379636  .00001299  00000+0  11118-3 0  9990
2 54828  43.0024 146.6043 0001390 266.1039  93.9644 15.02536017106828
STARLINK-5394           
1 54830U 22177L   24333.52472526  .00001516  00000+0  12725-3 0  9999
2 54830  43.0021 146.2017 0001073 271.5927  88.4792 15.02539642106830
STARLINK-5395           
1 54831U 22177M   24333.53693529  .00001351  00000+0  11504-3 0  9990
2 54831  43.0007 146.2915 0001092 274.5912  85.4805 15.02538284106833
STARLINK-5393           
1 54832U 22177N   24334.16546071  .00000567  00000+0  57042-4 0  9996
2 54832  43.0024 130.2699 0001357 265.7501  94.3187 15.02538456106096
STARLINK-5391           
1 54833U 22177P   24333.53138401  .00001316  00000+0  11245-3 0  9998
2 54833  43.0015 146.2496 0001331 270.2663  89.8027 15.02540323106831
STARLINK-5386           
1 54834U 22177Q   24333.78952809  .00001656  00000+0  13763-3 0  9996
2 54834  43.0013 144.7461 0001074 267.0337  93.0382 15.02535459106881
STARLINK-5389           
1 54835U 22177R   24333.92684882  .00012443  00000+0  93236-3 0  9995
2 54835  43.0027 144.0565 0001646 285.6631  74.4030 15.02626177105917
STARLINK-5384           
1 54836U 22177S   24333.85267878  .00002323  00000+0  18695-3 0  9992
2 54836  43.0014 144.3624 0001137 272.0018  88.0694 15.02534617106899
STARLINK-5369           
1 54837U 22177T   24333.78730710  .00002210  00000+0  17857-3 0  9999
2 54837  43.0001 144.7302 0001298 275.8518  84.2176 15.02539205106876
STARLINK-5372           
1 54838U 22177U   24333.51362648  .00000773  00000+0  72301-4 0  9990
2 54838  43.0015 146.1153 0001123 265.8783  94.1931 15.02537747106836
STARLINK-5368           
1 54840U 22177W   24333.77065885  .00001526  00000+0  12800-3 0  9998
2 54840  43.0044 144.6051 0001339 273.1587  86.9102 15.02537669106870
STARLINK-4659           
1 54841U 22177X   24333.78287006  .00001904  00000+0  15601-3 0  9993
2 54841  43.0015 144.6972 0001038 266.2812  93.7912 15.02534532106872
STARLINK-5387           
1 54842U 22177Y   24333.89695482  .00001349  00000+0  11494-3 0  9996
2 54842  43.0017 143.8299 0001141 266.8794  93.1918 15.02538153105915
STARLINK-5304           
1 54843U 22177Z   24333.77620900  .00001392  00000+0  11808-3 0  9994
2 54843  43.0026 144.6468 0001153 277.3864  82.6847 15.02537377106878
STARLINK-5388           
1 54844U 22177AA  24334.15841411 -.00000947  00000+0 -55047-4 0  9991
2 54844  43.0027 142.3318 0001890 263.7809  96.2819 15.02538461105958
STARLINK-5082           
1 54845U 22177AB  24333.76732664  .00000919  00000+0  83056-4 0  9995
2 54845  43.0017 144.5788 0001196 275.8446  84.2260 15.02540875106874
STARLINK-5360           
1 54846U 22177AC  24334.15954317  .00000914  00000+0  82755-4 0  9991
2 54846  43.0033 142.3615 0001444 275.2337  84.8340 15.02537139105959
STARLINK-5061           
1 54847U 22177AD  24334.12021381 -.00000447  00000+0 -18012-4 0  9993
2 54847  43.0043 116.9116 0000983 287.5009  72.5726 15.02539171106246
STARLINK-5432           
1 54848U 22177AE  24333.76104656  .00001697  00000+0  14071-3 0  9996
2 54848  43.0010 132.3789 0001259 260.0145 100.0555 15.02532031107014
STARLINK-5434           
1 54849U 22177AF  24334.15620672  .00001476  00000+0  12430-3 0  9994
2 54849  43.0032 142.3299 0001220 270.1094  89.9609 15.02536082105955
STARLINK-5087           
1 54850U 22177AG  24333.75659910  .00001547  00000+0  12954-3 0  9998
2 54850  43.0019 132.3483 0001093 273.2257  86.8461 15.02542662107011
STARLINK-5084           
1 54851U 22177AH  24333.75992977  .00001934  00000+0  15820-3 0  9997
2 54851  43.0014 132.3692 0001223 272.0393  88.0310 15.02539884107011
STARLINK-5418           
1 54852U 22177AJ  24334.14883879 -.00002783  00000+0 -19117-3 0  9990
2 54852  43.0019 130.1298 0001535 265.9486  94.1180 15.02508649106090
STARLINK-5427           
1 54853U 22177AK  24333.75327502  .00000812  00000+0  75142-4 0  9993
2 54853  43.0054 132.3222 0001180 268.7338  91.3369 15.02538383107013
STARLINK-5419           
1 54854U 22177AL  24333.81086703 -.00001743  00000+0 -11401-3 0  9999
2 54854  43.0064 131.8951 0001729 280.6578  79.4070 15.02534317107026
STARLINK-5416           
1 54855U 22177AM  24333.81309817 -.00000202  00000+0  11149-6 0  9994
2 54855  43.0011 131.9112 0001132 272.4926  87.5787 15.02534065107028
STARLINK-5086           
1 54856U 22177AN  24333.72663326  .00001566  00000+0  13098-3 0  9998
2 54856  43.0044 132.1227 0001428 267.5943  92.4736 15.02538839107018
STARLINK-5078           
1 54857U 22177AP  24333.80421609  .00008469  00000+0  64133-3 0  9999
2 54857  43.0018 131.8470 0000909 258.7828 101.2912 15.02532934107029
