OBJECT_NAME,OBJECT_ID,EPOCH,MEAN_MOTION,ECCENTRICITY,INCLINATION,RA_OF_ASC_NODE,ARG_OF_PERICENTER,MEAN_ANOMALY,EPHEMERIS_TYPE,CLASSIFICATION_TYPE,NORAD_CAT_ID,ELEMENT_SET_NO,REV_AT_EPOCH,BSTAR,MEAN_MOTION_DOT,MEAN_MOTION_DDOT
STARLINK-5107,2022-177G,2024-11-28T12:59:34.772352,15.02519613,.0001295,43.0025,146.3253,269.2199,90.8495,0,U,54826,999,10683,.15724E-3,.192E-4,0
STARLINK-5383,2022-177H,2024-11-28T12:48:24.671232,15.02535950,.0001195,43.0012,146.2657,267.5656,92.5050,0,U,54827,999,10684,.13808E-3,.1662E-4,0
STARLINK-5381,2022-177J,2024-11-28T11:07:52.005504,15.02536017,.000139,43.0024,146.6043,266.1039,93.9644,0,U,54828,999,10682,.11118E-3,.1299E-4,0
STARLINK-5394,2022-177L,2024-11-28T12:35:36.262464,15.02539642,.0001073,43.0021,146.2017,271.5927,88.4792,0,U,54830,999,10683,.12725E-3,.1516E-4,0
STARLINK-5395,2022-177M,2024-11-28T12:53:11.209056,15.02538284,.0001092,43.0007,146.2915,274.5912,85.4805,0,U,54831,999,10683,.11504E-3,.1351E-4,0
STARLINK-5393,2022-177N,2024-11-29T03:58:15.805344,15.02538456,.0001357,43.0024,130.2699,265.7501,94.3187,0,U,54832,999,10609,.57042E-4,.567E-5,0
STARLINK-5391,2022-177P,2024-11-28T12:45:11.578464,15.02540323,.0001331,43.0015,146.2496,270.2663,89.8027,0,U,54833,999,10683,.11245E-3,.1316E-4,0
STARLINK-5386,2022-177Q,2024-11-28T18:56:55.226976,15.02535459,.0001074,43.0013,144.7461,267.0337,93.0382,0,U,54834,999,10688,.13763E-3,.1656E-4,0
STARLINK-5389,2022-177R,2024-11-28T22:14:39.738048,15.02626177,.0001646,43.0027,144.0565,285.6631,74.4030,0,U,54835,999,10591,.93236E-3,.12443E-3,0
STARLINK-5384,2022-177S,2024-11-28T20:27:51.446592,15.02534617,.0001137,43.0014,144.3624,272.0018,88.0694,0,U,54836,999,10689,.18695E-3,.2323E-4,0
STARLINK-5369,2022-177T,2024-11-28T18:53:43.333440,15.02539205,.0001298,43.0001,144.7302,275.8518,84.2176,0,U,54837,999,10687,.17857E-3,.221E-4,0
STARLINK-5372,2022-177U,2024-11-28T12:19:37.327872,15.02537747,.0001123,43.0015,146.1153,265.8783,94.1931,0,U,54838,999,10683,.72301E-4,.773E-5,0
STARLINK-5368,2022-177W,2024-11-28T18:29:44.924640,15.02537669,.0001339,43.0044,144.6051,273.1587,86.9102,0,U,54840,999,10687,.128E-3,.1526E-4,0
STARLINK-4659,2022-177X,2024-11-28T18:47:19.973184,15.02534532,.0001038,43.0015,144.6972,266.2812,93.7912,0,U,54841,999,10687,.15601E-3,.1904E-4,0
STARLINK-5387,2022-177Y,2024-11-28T21:31:36.896448,15.02538153,.0001141,43.0017,143.8299,266.8794,93.1918,0,U,54842,999,10591,.11494E-3,.1349E-4,0
STARLINK-5304,2022-177Z,2024-11-28T18:37:44.457600,15.02537377,.0001153,43.0026,144.6468,277.3864,82.6847,0,U,54843,999,10687,.11808E-3,.1392E-4,0
STARLINK-5388,2022-177AA,2024-11-29T03:48:06.979104,15.02538461,.000189,43.0027,142.3318,263.7809,96.2819,0,U,54844,999,10595,-.55047E-4,-.947E-5,0
STARLINK-5082,2022-177AB,2024-11-28T18:24:57.021696,15.02540875,.0001196,43.0017,144.5788,275.8446,84.2260,0,U,54845,999,10687,.83056E-4,.919E-5,0
STARLINK-5360,2022-177AC,2024-11-29T03:49:44.529888,15.02537139,.0001444,43.0033,142.3615,275.2337,84.8340,0,U,54846,999,10595,.82755E-4,.914E-5,0
STARLINK-5061,2022-177AD,2024-11-29T02:53:06.473184,15.02539171,.0000983,43.0043,116.9116,287.5009,72.5726,0,U,54847,999,10624,-.18012E-4,-.447E-5,0
STARLINK-5432,2022-177AE,2024-11-28T18:15:54.422784,15.02532031,.0001259,43.0010,132.3789,260.0145,100.0555,0,U,54848,999,10701,.14071E-3,.1697E-4,0
STARLINK-5434,2022-177AF,2024-11-29T03:44:56.260608,15.02536082,.000122,43.0032,142.3299,270.1094,89.9609,0,U,54849,999,10595,.1243E-3,.1476E-4,0
STARLINK-5087,2022-177AG,2024-11-28T18:09:30.162240,15.02542662,.0001093,43.0019,132.3483,273.2257,86.8461,0,U,54850,999,10701,.12954E-3,.1547E-4,0
STARLINK-5084,2022-177AH,2024-11-28T18:14:17.932128,15.02539884,.0001223,43.0014,132.3692,272.0393,88.0310,0,U,54851,999,10701,.1582E-3,.1934E-4,0
STARLINK-5418,2022-177AJ,2024-11-29T03:34:19.671456,15.02508649,.0001535,43.0019,130.1298,265.9486,94.1180,0,U,54852,999,10609,-.19117E-3,-.2783E-4,0
STARLINK-5427,2022-177AK,2024-11-28T18:04:42.961728,15.02538383,.000118,43.0054,132.3222,268.7338,91.3369,0,U,54853,999,10701,.75142E-4,.812E-5,0
STARLINK-5419,2022-177AL,2024-11-28T19:27:38.911392,15.02534317,.0001729,43.0064,131.8951,280.6578,79.4070,0,U,54854,999,10702,-.11401E-3,-.1743E-4,0
STARLINK-5416,2022-177AM,2024-11-28T19:30:51.681888,15.02534065,.0001132,43.0011,131.9112,272.4926,87.5787,0,U,54855,999,10702,.11149E-6,-.202E-5,0
STARLINK-5086,2022-177AN,2024-11-28T17:26:21.113664,15.02538839,.0001428,43.0044,132.1227,267.5943,92.4736,0,U,54856,999,10701,.13098E-3,.1566E-4,0
STARLINK-5078,2022-177AP,2024-11-28T19:18:04.270176,15.02532934,.0000909,43.0018,131.8470,258.7828,101.2912,0,U,54857,999,10702,.64133E-3,.8469E-4,0
